ISS OBJECT XT           
1 66907U 98067XT  26093.79054114  .00346833  00000+0  17775-2 0  9994
2 66907  51.6221 296.7263 0007071 244.1010 115.9263 15.79721293 19136
ISS OBJECT XU           
1 66908U 98067XU  26093.78566026  .00356022  00000+0  17948-2 0  9997
2 66908  51.6220 296.6887 0007202 243.6126 116.4136 15.80057487 19139
SILVERSAT               
1 66909U 98067XV  26093.77994826  .00579654  00000+0  20456-2 0  9996
2 66909  51.6183 295.1303 0008837 251.8453 108.1590 15.87036353 19154
ISS OBJECT XW           
1 66910U 98067XW  26093.80402081  .00289411  00000+0  16307-2 0  9998
2 66910  51.6199 296.8087 0007277 239.9507 120.0772 15.77771409 19134
ISS OBJECT XX           
1 66911U 98067XX  26093.81691764  .01105203  59707-3  24502-2 0  9993
2 66911  51.6151 293.0793 0010965 258.1070 101.8709 15.97317952 19174
ISS OBJECT XY           
1 66912U 98067XY  26093.78423691  .00161885  00000+0  13386-2 0  9995
2 66912  51.6250 299.7150 0004900 237.6031 122.4492 15.69233885 19085
KNACKSAT-2              
1 67683U 98067XZ  26093.76128895  .00058417  00000+0  88442-3 0  9999
2 67683  51.6304 307.0797 0010476 278.6039  81.3765 15.54033651  8682
CORAL                   
1 67684U 98067YA  26093.80460641  .00133892  00000+0  16648-2 0  9992
2 67684  51.6284 305.8684 0013485 268.4789  91.4659 15.58915220  8705
GXIBA-1                 
1 67685U 98067YB  26093.81336781  .00075333  00000+0  11093-2 0  9995
2 67685  51.6298 306.6778 0012440 275.1790  84.7781 15.54660633  8691
UITMSAT-2               
1 67686U 98067YC  26093.79480318  .00085147  00000+0  12028-2 0  9992
2 67686  51.6307 306.5559 0009468 249.4305 110.5671 15.55773967  8693
HMU-SAT2                
1 67687U 98067YD  26093.88358982  .00071531  00000+0  10661-2 0  9997
2 67687  51.6307 306.3995 0008999 252.1797 107.8212 15.54393032  8623
LEOPARD                 
1 67688U 98067YE  26093.80326683  .00076143  00000+0  10982-2 0  9993
2 67688  51.6306 306.6128 0009237 249.5445 110.4555 15.55259646  8612
CREW DRAGON 12          
1 67796U 26031A   26093.87567842  .00012431  00000+0  23534-3 0  9994
2 67796  51.6327 307.8415 0006253 268.9169  91.1103 15.48754008560206
PROGRESS-MS 33          
1 68319U 26058A   26093.87567842  .00012431  00000+0  23534-3 0  9995
2 68319  51.6327 307.8415 0006253 268.9169  91.1103 15.48754008  1714
