[{"OBJECT_NAME":"ISS OBJECT XT","OBJECT_ID":"1998-067XT","EPOCH":"2026-04-03T18:58:22.754496","MEAN_MOTION":15.79721293,"ECCENTRICITY":0.0007071,"INCLINATION":51.6221,"RA_OF_ASC_NODE":296.7263,"ARG_OF_PERICENTER":244.101,"MEAN_ANOMALY":115.9263,"EPHEMERIS_TYPE":0,"CLASSIFICATION_TYPE":"U","NORAD_CAT_ID":66907,"ELEMENT_SET_NO":999,"REV_AT_EPOCH":1913,"BSTAR":0.0017775,"MEAN_MOTION_DOT":0.00346833,"MEAN_MOTION_DDOT":0},{"OBJECT_NAME":"ISS OBJECT XU","OBJECT_ID":"1998-067XU","EPOCH":"2026-04-03T18:51:21.046464","MEAN_MOTION":15.80057487,"ECCENTRICITY":0.0007202,"INCLINATION":51.622,"RA_OF_ASC_NODE":296.6887,"ARG_OF_PERICENTER":243.6126,"MEAN_ANOMALY":116.4136,"EPHEMERIS_TYPE":0,"CLASSIFICATION_TYPE":"U","NORAD_CAT_ID":66908,"ELEMENT_SET_NO":999,"REV_AT_EPOCH":1913,"BSTAR":0.0017948,"MEAN_MOTION_DOT":0.00356022,"MEAN_MOTION_DDOT":0},{"OBJECT_NAME":"SILVERSAT","OBJECT_ID":"1998-067XV","EPOCH":"2026-04-03T18:43:07.529664","MEAN_MOTION":15.87036353,"ECCENTRICITY":0.0008837,"INCLINATION":51.6183,"RA_OF_ASC_NODE":295.1303,"ARG_OF_PERICENTER":251.8453,"MEAN_ANOMALY":108.159,"EPHEMERIS_TYPE":0,"CLASSIFICATION_TYPE":"U","NORAD_CAT_ID":66909,"ELEMENT_SET_NO":999,"REV_AT_EPOCH":1915,"BSTAR":0.0020456,"MEAN_MOTION_DOT":0.00579654,"MEAN_MOTION_DDOT":0},{"OBJECT_NAME":"ISS OBJECT XW","OBJECT_ID":"1998-067XW","EPOCH":"2026-04-03T19:17:47.397984","MEAN_MOTION":15.77771409,"ECCENTRICITY":0.0007277,"INCLINATION":51.6199,"RA_OF_ASC_NODE":296.8087,"ARG_OF_PERICENTER":239.9507,"MEAN_ANOMALY":120.0772,"EPHEMERIS_TYPE":0,"CLASSIFICATION_TYPE":"U","NORAD_CAT_ID":66910,"ELEMENT_SET_NO":999,"REV_AT_EPOCH":1913,"BSTAR":0.0016307,"MEAN_MOTION_DOT":0.00289411,"MEAN_MOTION_DDOT":0},{"OBJECT_NAME":"ISS OBJECT XX","OBJECT_ID":"1998-067XX","EPOCH":"2026-04-03T19:36:21.684096","MEAN_MOTION":15.97317952,"ECCENTRICITY":0.0010965,"INCLINATION":51.6151,"RA_OF_ASC_NODE":293.0793,"ARG_OF_PERICENTER":258.107,"MEAN_ANOMALY":101.8709,"EPHEMERIS_TYPE":0,"CLASSIFICATION_TYPE":"U","NORAD_CAT_ID":66911,"ELEMENT_SET_NO":999,"REV_AT_EPOCH":1917,"BSTAR":0.0024502,"MEAN_MOTION_DOT":0.01105203,"MEAN_MOTION_DDOT":0.00059707},{"OBJECT_NAME":"ISS OBJECT XY","OBJECT_ID":"1998-067XY","EPOCH":"2026-04-03T18:49:18.069024","MEAN_MOTION":15.69233885,"ECCENTRICITY":0.00049,"INCLINATION":51.625,"RA_OF_ASC_NODE":299.715,"ARG_OF_PERICENTER":237.6031,"MEAN_ANOMALY":122.4492,"EPHEMERIS_TYPE":0,"CLASSIFICATION_TYPE":"U","NORAD_CAT_ID":66912,"ELEMENT_SET_NO":999,"REV_AT_EPOCH":1908,"BSTAR":0.0013386,"MEAN_MOTION_DOT":0.00161885,"MEAN_MOTION_DDOT":0},{"OBJECT_NAME":"KNACKSAT-2","OBJECT_ID":"1998-067XZ","EPOCH":"2026-04-03T18:16:15.365280","MEAN_MOTION":15.54033651,"ECCENTRICITY":0.0010476,"INCLINATION":51.6304,"RA_OF_ASC_NODE":307.0797,"ARG_OF_PERICENTER":278.6039,"MEAN_ANOMALY":81.3765,"EPHEMERIS_TYPE":0,"CLASSIFICATION_TYPE":"U","NORAD_CAT_ID":67683,"ELEMENT_SET_NO":999,"REV_AT_EPOCH":868,"BSTAR":0.00088442,"MEAN_MOTION_DOT":0.00058417,"MEAN_MOTION_DDOT":0},{"OBJECT_NAME":"CORAL","OBJECT_ID":"1998-067YA","EPOCH":"2026-04-03T19:18:37.993824","MEAN_MOTION":15.5891522,"ECCENTRICITY":0.0013485,"INCLINATION":51.6284,"RA_OF_ASC_NODE":305.8684,"ARG_OF_PERICENTER":268.4789,"MEAN_ANOMALY":91.4659,"EPHEMERIS_TYPE":0,"CLASSIFICATION_TYPE":"U","NORAD_CAT_ID":67684,"ELEMENT_SET_NO":999,"REV_AT_EPOCH":870,"BSTAR":0.0016648,"MEAN_MOTION_DOT":0.00133892,"MEAN_MOTION_DDOT":0},{"OBJECT_NAME":"GXIBA-1","OBJECT_ID":"1998-067YB","EPOCH":"2026-04-03T19:31:14.978784","MEAN_MOTION":15.54660633,"ECCENTRICITY":0.001244,"INCLINATION":51.6298,"RA_OF_ASC_NODE":306.6778,"ARG_OF_PERICENTER":275.179,"MEAN_ANOMALY":84.7781,"EPHEMERIS_TYPE":0,"CLASSIFICATION_TYPE":"U","NORAD_CAT_ID":67685,"ELEMENT_SET_NO":999,"REV_AT_EPOCH":869,"BSTAR":0.0011093,"MEAN_MOTION_DOT":0.00075333,"MEAN_MOTION_DDOT":0},{"OBJECT_NAME":"UITMSAT-2","OBJECT_ID":"1998-067YC","EPOCH":"2026-04-03T19:04:30.994752","MEAN_MOTION":15.55773967,"ECCENTRICITY":0.0009468,"INCLINATION":51.6307,"RA_OF_ASC_NODE":306.5559,"ARG_OF_PERICENTER":249.4305,"MEAN_ANOMALY":110.5671,"EPHEMERIS_TYPE":0,"CLASSIFICATION_TYPE":"U","NORAD_CAT_ID":67686,"ELEMENT_SET_NO":999,"REV_AT_EPOCH":869,"BSTAR":0.0012028,"MEAN_MOTION_DOT":0.00085147,"MEAN_MOTION_DDOT":0},{"OBJECT_NAME":"HMU-SAT2","OBJECT_ID":"1998-067YD","EPOCH":"2026-04-03T21:12:22.160448","MEAN_MOTION":15.54393032,"ECCENTRICITY":0.0008999,"INCLINATION":51.6307,"RA_OF_ASC_NODE":306.3995,"ARG_OF_PERICENTER":252.1797,"MEAN_ANOMALY":107.8212,"EPHEMERIS_TYPE":0,"CLASSIFICATION_TYPE":"U","NORAD_CAT_ID":67687,"ELEMENT_SET_NO":999,"REV_AT_EPOCH":862,"BSTAR":0.0010661,"MEAN_MOTION_DOT":0.00071531,"MEAN_MOTION_DDOT":0},{"OBJECT_NAME":"LEOPARD","OBJECT_ID":"1998-067YE","EPOCH":"2026-04-03T19:16:42.254112","MEAN_MOTION":15.55259646,"ECCENTRICITY":0.0009237,"INCLINATION":51.6306,"RA_OF_ASC_NODE":306.6128,"ARG_OF_PERICENTER":249.5445,"MEAN_ANOMALY":110.4555,"EPHEMERIS_TYPE":0,"CLASSIFICATION_TYPE":"U","NORAD_CAT_ID":67688,"ELEMENT_SET_NO":999,"REV_AT_EPOCH":861,"BSTAR":0.0010982,"MEAN_MOTION_DOT":0.00076143,"MEAN_MOTION_DDOT":0},{"OBJECT_NAME":"CREW DRAGON 12","OBJECT_ID":"2026-031A","EPOCH":"2026-04-03T21:00:58.615488","MEAN_MOTION":15.48754008,"ECCENTRICITY":0.0006253,"INCLINATION":51.6327,"RA_OF_ASC_NODE":307.8415,"ARG_OF_PERICENTER":268.9169,"MEAN_ANOMALY":91.1103,"EPHEMERIS_TYPE":0,"CLASSIFICATION_TYPE":"U","NORAD_CAT_ID":67796,"ELEMENT_SET_NO":999,"REV_AT_EPOCH":56020,"BSTAR":0.00023534,"MEAN_MOTION_DOT":0.00012431,"MEAN_MOTION_DDOT":0},{"OBJECT_NAME":"PROGRESS-MS 33","OBJECT_ID":"2026-058A","EPOCH":"2026-04-03T21:00:58.615488","MEAN_MOTION":15.48754008,"ECCENTRICITY":0.0006253,"INCLINATION":51.6327,"RA_OF_ASC_NODE":307.8415,"ARG_OF_PERICENTER":268.9169,"MEAN_ANOMALY":91.1103,"EPHEMERIS_TYPE":0,"CLASSIFICATION_TYPE":"U","NORAD_CAT_ID":68319,"ELEMENT_SET_NO":999,"REV_AT_EPOCH":171,"BSTAR":0.00023534,"MEAN_MOTION_DOT":0.00012431,"MEAN_MOTION_DDOT":0}]
